{
  "type": "FeatureCollection",
  "name": "era5_zone03_agriculture",
  "features": [
    {
      "type": "Feature",
      "properties": {
        "polygon_id": "EXT-WZ03-0001",
        "source": "OpenStreetMap",
        "source_license": "ODbL",
        "osm_way_id": 582822753,
        "landuse": "farmland",
        "area_ha": 98.98,
        "centroid_lon": 42.9916955,
        "centroid_lat": 47.6931229,
        "cropland_fraction": 0.9901897964516473,
        "sentinel2_valid_observations": 26
      },
      "geometry": {
        "type": "Polygon",
        "coordinates": [
          [
            [
              42.9909615,
              47.6892114
            ],
            [
              42.9913446,
              47.6894049
            ],
            [
              42.9915731,
              47.6894714
            ],
            [
              42.9917877,
              47.6894136
            ],
            [
              42.9926567,
              47.6887058
            ],
            [
              42.992911,
              47.6886249
            ],
            [
              42.9931363,
              47.6886827
            ],
            [
              42.9954323,
              47.6900116
            ],
            [
              42.9957681,
              47.690273
            ],
            [
              42.9960899,
              47.6903524
            ],
            [
              42.9965405,
              47.6903236
            ],
            [
              42.9970555,
              47.6902875
            ],
            [
              42.9973988,
              47.6903958
            ],
            [
              43.0006497,
              47.692974
            ],
            [
              43.0005821,
              47.6931531
            ],
            [
              43.0000274,
              47.6936095
            ],
            [
              43.0000918,
              47.6938333
            ],
            [
              43.0003353,
              47.693998
            ],
            [
              43.0016153,
              47.6948588
            ],
            [
              43.0016153,
              47.6950032
            ],
            [
              43.0014222,
              47.6951332
            ],
            [
              42.9954891,
              47.6977111
            ],
            [
              42.9945342,
              47.6979278
            ],
            [
              42.9940407,
              47.698
            ],
            [
              42.9933326,
              47.6980577
            ],
            [
              42.9921095,
              47.6980072
            ],
            [
              42.9905646,
              47.6978628
            ],
            [
              42.9893844,
              47.6977761
            ],
            [
              42.9880969,
              47.6977761
            ],
            [
              42.9873996,
              47.6976606
            ],
            [
              42.9860692,
              47.6973717
            ],
            [
              42.985007,
              47.6970035
            ],
            [
              42.9838129,
              47.6963738
            ],
            [
              42.9832261,
              47.6958986
            ],
            [
              42.9829256,
              47.6954581
            ],
            [
              42.9827111,
              47.6951476
            ],
            [
              42.982636,
              47.6947649
            ],
            [
              42.9826682,
              47.6944471
            ],
            [
              42.9829686,
              47.6941005
            ],
            [
              42.9839878,
              47.6931689
            ],
            [
              42.9849856,
              47.6923385
            ],
            [
              42.9865091,
              47.6911541
            ],
            [
              42.9890625,
              47.6891319
            ],
            [
              42.9894488,
              47.6889514
            ],
            [
              42.9897492,
              47.6889658
            ],
            [
              42.9901859,
              47.6889427
            ],
            [
              42.9905217,
              47.6889658
            ],
            [
              42.9909615,
              47.6892114
            ]
          ]
        ]
      }
    },
    {
      "type": "Feature",
      "properties": {
        "polygon_id": "EXT-WZ03-0002",
        "source": "OpenStreetMap",
        "source_license": "ODbL",
        "osm_way_id": 583752282,
        "landuse": "farmland",
        "area_ha": 146.65,
        "centroid_lon": 43.1009524,
        "centroid_lat": 47.5595723,
        "cropland_fraction": 0.9951110893450084,
        "sentinel2_valid_observations": 25
      },
      "geometry": {
        "type": "Polygon",
        "coordinates": [
          [
            [
              43.1016771,
              47.5659323
            ],
            [
              43.1008027,
              47.5652482
            ],
            [
              43.0996494,
              47.5643794
            ],
            [
              43.0985175,
              47.5634564
            ],
            [
              43.0978147,
              47.5627288
            ],
            [
              43.0968974,
              47.5616429
            ],
            [
              43.0966292,
              47.5613967
            ],
            [
              43.0965487,
              47.5612917
            ],
            [
              43.0962483,
              47.5610637
            ],
            [
              43.0960123,
              47.5607922
            ],
            [
              43.0955885,
              47.5602564
            ],
            [
              43.0946444,
              47.5591415
            ],
            [
              43.0928688,
              47.5572337
            ],
            [
              43.0926005,
              47.5569078
            ],
            [
              43.0925147,
              47.5568897
            ],
            [
              43.0923967,
              47.5569151
            ],
            [
              43.0919353,
              47.5570852
            ],
            [
              43.0918281,
              47.5570635
            ],
            [
              43.0911629,
              47.5563395
            ],
            [
              43.090385,
              47.5553801
            ],
            [
              43.0894624,
              47.5544279
            ],
            [
              43.0890868,
              47.554008
            ],
            [
              43.0890278,
              47.5539247
            ],
            [
              43.0890538,
              47.5538959
            ],
            [
              43.0892952,
              47.5538778
            ],
            [
              43.0898317,
              47.5538995
            ],
            [
              43.0914035,
              47.5539394
            ],
            [
              43.0922948,
              47.5539971
            ],
            [
              43.0928358,
              47.5539864
            ],
            [
              43.0942091,
              47.5539104
            ],
            [
              43.0949225,
              47.5538995
            ],
            [
              43.0959739,
              47.5539792
            ],
            [
              43.0965372,
              47.5540045
            ],
            [
              43.0972507,
              47.5539466
            ],
            [
              43.0980285,
              47.5539285
            ],
            [
              43.0999337,
              47.5539283
            ],
            [
              43.1010165,
              47.553943
            ],
            [
              43.1018971,
              47.5539283
            ],
            [
              43.1027438,
              47.5539502
            ],
            [
              43.1036665,
              47.5540045
            ],
            [
              43.1038765,
              47.5540188
            ],
            [
              43.1039991,
              47.5540914
            ],
            [
              43.1043003,
              47.5544388
            ],
            [
              43.1047563,
              47.5548588
            ],
            [
              43.1051149,
              47.5551522
            ],
            [
              43.1074492,
              47.5571251
            ],
            [
              43.1088056,
              47.5582945
            ],
            [
              43.1094555,
              47.5588555
            ],
            [
              43.1105499,
              47.5596157
            ],
            [
              43.1119875,
              47.5606908
            ],
            [
              43.1127807,
              47.561339
            ],
            [
              43.1131508,
              47.5616865
            ],
            [
              43.1138643,
              47.562215
            ],
            [
              43.1140192,
              47.56231
            ],
            [
              43.1140384,
              47.5624231
            ],
            [
              43.1139752,
              47.5624682
            ],
            [
              43.1132617,
              47.5628827
            ],
            [
              43.1120923,
              47.5635849
            ],
            [
              43.1114378,
              47.5639614
            ],
            [
              43.1105017,
              47.5644627
            ],
            [
              43.1093367,
              47.5650818
            ],
            [
              43.1079992,
              47.5657748
            ],
            [
              43.1073438,
              47.5660971
            ],
            [
              43.1065642,
              47.5664444
            ],
            [
              43.1055584,
              47.5668697
            ],
            [
              43.1044614,
              47.5673077
            ],
            [
              43.1038713,
              47.5675285
            ],
            [
              43.1038016,
              47.5675231
            ],
            [
              43.1037533,
              47.5674941
            ],
            [
              43.1036541,
              47.5674
            ],
            [
              43.1031659,
              47.5670579
            ],
            [
              43.1026482,
              47.5666562
            ],
            [
              43.1020286,
              47.5661802
            ],
            [
              43.1016771,
              47.5659323
            ]
          ]
        ]
      }
    },
    {
      "type": "Feature",
      "properties": {
        "polygon_id": "EXT-WZ03-0003",
        "source": "OpenStreetMap",
        "source_license": "ODbL",
        "osm_way_id": 584155994,
        "landuse": "farmland",
        "area_ha": 184.69,
        "centroid_lon": 42.8789222,
        "centroid_lat": 47.7633966,
        "cropland_fraction": 0.994557123641079,
        "sentinel2_valid_observations": 26
      },
      "geometry": {
        "type": "Polygon",
        "coordinates": [
          [
            [
              42.8664206,
              47.761044
            ],
            [
              42.8686629,
              47.7612532
            ],
            [
              42.8697192,
              47.7614277
            ],
            [
              42.8700791,
              47.7615633
            ],
            [
              42.8703737,
              47.7618604
            ],
            [
              42.8707384,
              47.7619758
            ],
            [
              42.8712379,
              47.76196
            ],
            [
              42.8720854,
              47.7618662
            ],
            [
              42.8722356,
              47.7618734
            ],
            [
              42.8723322,
              47.7619311
            ],
            [
              42.8722834,
              47.7620768
            ],
            [
              42.8720318,
              47.7630346
            ],
            [
              42.8720533,
              47.7632653
            ],
            [
              42.8721284,
              47.7635538
            ],
            [
              42.8725945,
              47.7642187
            ],
            [
              42.8727614,
              47.7644409
            ],
            [
              42.8729437,
              47.7645202
            ],
            [
              42.8733944,
              47.7645058
            ],
            [
              42.8816234,
              47.7640442
            ],
            [
              42.881875,
              47.7639231
            ],
            [
              42.8820633,
              47.7636764
            ],
            [
              42.8824114,
              47.7626321
            ],
            [
              42.8830181,
              47.7611089
            ],
            [
              42.8831576,
              47.7610008
            ],
            [
              42.8834306,
              47.7609589
            ],
            [
              42.8836833,
              47.7609286
            ],
            [
              42.8839623,
              47.7607411
            ],
            [
              42.8842139,
              47.7604974
            ],
            [
              42.8846489,
              47.7602074
            ],
            [
              42.885394,
              47.7599492
            ],
            [
              42.8869712,
              47.7596174
            ],
            [
              42.8886722,
              47.7591616
            ],
            [
              42.8892242,
              47.7589611
            ],
            [
              42.8895198,
              47.7585846
            ],
            [
              42.8896963,
              47.7581533
            ],
            [
              42.8900503,
              47.7572806
            ],
            [
              42.8902064,
              47.757171
            ],
            [
              42.8903245,
              47.7572142
            ],
            [
              42.8922127,
              47.7579355
            ],
            [
              42.8933178,
              47.7582528
            ],
            [
              42.8937148,
              47.75835
            ],
            [
              42.8939074,
              47.7583769
            ],
            [
              42.8942614,
              47.7583805
            ],
            [
              42.8958444,
              47.7585412
            ],
            [
              42.89667,
              47.7586438
            ],
            [
              42.897008,
              47.7587159
            ],
            [
              42.8970944,
              47.7587575
            ],
            [
              42.8970783,
              47.7587972
            ],
            [
              42.8958654,
              47.7607137
            ],
            [
              42.8950071,
              47.7620444
            ],
            [
              42.8940152,
              47.7630344
            ],
            [
              42.8937893,
              47.7633533
            ],
            [
              42.8933929,
              47.7641089
            ],
            [
              42.8927975,
              47.7660236
            ],
            [
              42.8922825,
              47.7676534
            ],
            [
              42.892143,
              47.768032
            ],
            [
              42.8920679,
              47.768068
            ],
            [
              42.8919123,
              47.7681005
            ],
            [
              42.8917353,
              47.7681041
            ],
            [
              42.8899704,
              47.7678589
            ],
            [
              42.8894554,
              47.7678589
            ],
            [
              42.8877388,
              47.767776
            ],
            [
              42.8871648,
              47.7677652
            ],
            [
              42.8859739,
              47.7677796
            ],
            [
              42.8830557,
              47.7679779
            ],
            [
              42.8811459,
              47.7681762
            ],
            [
              42.8782652,
              47.7683421
            ],
            [
              42.8738342,
              47.7686377
            ],
            [
              42.8702401,
              47.7688577
            ],
            [
              42.8675203,
              47.7690055
            ],
            [
              42.866249,
              47.7691281
            ],
            [
              42.8644036,
              47.7694346
            ],
            [
              42.8635292,
              47.7695644
            ],
            [
              42.8628533,
              47.7696437
            ],
            [
              42.8624456,
              47.7696509
            ],
            [
              42.8622686,
              47.7696401
            ],
            [
              42.862113,
              47.7696004
            ],
            [
              42.8619735,
              47.7694922
            ],
            [
              42.8618823,
              47.7693444
            ],
            [
              42.861877,
              47.7690992
            ],
            [
              42.8619032,
              47.7688521
            ],
            [
              42.8622846,
              47.7668818
            ],
            [
              42.8628045,
              47.7641322
            ],
            [
              42.8630405,
              47.7630576
            ],
            [
              42.8631966,
              47.7622735
            ],
            [
              42.8633307,
              47.7611845
            ],
            [
              42.8634053,
              47.7610274
            ],
            [
              42.8635185,
              47.7608599
            ],
            [
              42.863711,
              47.7607606
            ],
            [
              42.8639256,
              47.7607281
            ],
            [
              42.8650039,
              47.7608796
            ],
            [
              42.8664206,
              47.761044
            ]
          ]
        ]
      }
    },
    {
      "type": "Feature",
      "properties": {
        "polygon_id": "EXT-WZ03-0004",
        "source": "OpenStreetMap",
        "source_license": "ODbL",
        "osm_way_id": 583171793,
        "landuse": "farmland",
        "area_ha": 220.69,
        "centroid_lon": 43.1323072,
        "centroid_lat": 47.6827003,
        "cropland_fraction": 0.9996983571866307,
        "sentinel2_valid_observations": 27
      },
      "geometry": {
        "type": "Polygon",
        "coordinates": [
          [
            [
              43.123355,
              47.6836322
            ],
            [
              43.1228883,
              47.6859362
            ],
            [
              43.1225021,
              47.6876371
            ],
            [
              43.1219603,
              47.6898615
            ],
            [
              43.1219925,
              47.689941
            ],
            [
              43.1221244,
              47.6899984
            ],
            [
              43.1235031,
              47.6904137
            ],
            [
              43.1259514,
              47.6912157
            ],
            [
              43.1275766,
              47.6915298
            ],
            [
              43.1293307,
              47.691797
            ],
            [
              43.1318984,
              47.6920025
            ],
            [
              43.1353979,
              47.6921978
            ],
            [
              43.1389062,
              47.6920678
            ],
            [
              43.1390081,
              47.6920064
            ],
            [
              43.1395124,
              47.6899193
            ],
            [
              43.139904,
              47.6880343
            ],
            [
              43.1403975,
              47.6860915
            ],
            [
              43.1409018,
              47.6839247
            ],
            [
              43.1415402,
              47.6817794
            ],
            [
              43.1421946,
              47.6797569
            ],
            [
              43.1426667,
              47.6782111
            ],
            [
              43.142656,
              47.6780233
            ],
            [
              43.1426184,
              47.6778932
            ],
            [
              43.1424127,
              47.6778387
            ],
            [
              43.1413739,
              47.6776729
            ],
            [
              43.1409876,
              47.6776585
            ],
            [
              43.1406604,
              47.6775862
            ],
            [
              43.140301,
              47.6772359
            ],
            [
              43.1400971,
              47.6771709
            ],
            [
              43.1380265,
              47.6768458
            ],
            [
              43.1319647,
              47.675997
            ],
            [
              43.1290572,
              47.6756936
            ],
            [
              43.1288533,
              47.6757225
            ],
            [
              43.1286441,
              47.6758308
            ],
            [
              43.1281988,
              47.6760728
            ],
            [
              43.1272869,
              47.6763835
            ],
            [
              43.1262121,
              47.6767876
            ],
            [
              43.1255223,
              47.6771384
            ],
            [
              43.1248034,
              47.6774923
            ],
            [
              43.1246264,
              47.6777524
            ],
            [
              43.1242026,
              47.680017
            ],
            [
              43.1238378,
              47.6817144
            ],
            [
              43.123355,
              47.6836322
            ]
          ]
        ]
      }
    },
    {
      "type": "Feature",
      "properties": {
        "polygon_id": "EXT-WZ03-0005",
        "source": "OpenStreetMap",
        "source_license": "ODbL",
        "osm_way_id": 583925464,
        "landuse": "farmland",
        "area_ha": 429.58,
        "centroid_lon": 42.8842112,
        "centroid_lat": 47.6990282,
        "cropland_fraction": 0.8929955879891791,
        "sentinel2_valid_observations": 26
      },
      "geometry": {
        "type": "Polygon",
        "coordinates": [
          [
            [
              42.8838445,
              47.6883883
            ],
            [
              42.8845204,
              47.6879549
            ],
            [
              42.8852928,
              47.6877021
            ],
            [
              42.8861436,
              47.6874595
            ],
            [
              42.887753,
              47.6868383
            ],
            [
              42.8880287,
              47.6868282
            ],
            [
              42.8882755,
              47.6869799
            ],
            [
              42.8902388,
              47.6888433
            ],
            [
              42.8921518,
              47.6906083
            ],
            [
              42.8939113,
              47.6922332
            ],
            [
              42.8965152,
              47.6948009
            ],
            [
              42.8980065,
              47.6962884
            ],
            [
              42.900531,
              47.6989923
            ],
            [
              42.9032851,
              47.7019062
            ],
            [
              42.9051444,
              47.7038589
            ],
            [
              42.9061712,
              47.7049242
            ],
            [
              42.9063536,
              47.7051553
            ],
            [
              42.9062892,
              47.7053213
            ],
            [
              42.9060102,
              47.7056029
            ],
            [
              42.9032744,
              47.707545
            ],
            [
              42.9000879,
              47.7100574
            ],
            [
              42.8969765,
              47.7123819
            ],
            [
              42.8966257,
              47.7124357
            ],
            [
              42.8963039,
              47.7123491
            ],
            [
              42.8935111,
              47.7110103
            ],
            [
              42.8910328,
              47.7094293
            ],
            [
              42.8906819,
              47.7091293
            ],
            [
              42.8902067,
              47.7090828
            ],
            [
              42.8897485,
              47.7091871
            ],
            [
              42.8893269,
              47.7094221
            ],
            [
              42.8885115,
              47.7099274
            ],
            [
              42.8882218,
              47.709913
            ],
            [
              42.8879,
              47.7097758
            ],
            [
              42.8849495,
              47.7079276
            ],
            [
              42.8836191,
              47.7069602
            ],
            [
              42.8831932,
              47.7067469
            ],
            [
              42.882557,
              47.7064548
            ],
            [
              42.8805507,
              47.7058267
            ],
            [
              42.8798673,
              47.7056495
            ],
            [
              42.8765735,
              47.7041622
            ],
            [
              42.8755296,
              47.7035235
            ],
            [
              42.8751251,
              47.7030647
            ],
            [
              42.8746423,
              47.7021983
            ],
            [
              42.8741778,
              47.7015524
            ],
            [
              42.8737379,
              47.7012203
            ],
            [
              42.8725824,
              47.7003282
            ],
            [
              42.8711737,
              47.6997112
            ],
            [
              42.8702757,
              47.6991584
            ],
            [
              42.8692994,
              47.6985013
            ],
            [
              42.86872,
              47.6978587
            ],
            [
              42.8683338,
              47.6972377
            ],
            [
              42.8681085,
              47.6968622
            ],
            [
              42.8680977,
              47.6965155
            ],
            [
              42.8696642,
              47.695324
            ],
            [
              42.8699506,
              47.6952702
            ],
            [
              42.8704227,
              47.6955013
            ],
            [
              42.8705546,
              47.6954613
            ],
            [
              42.8708411,
              47.6951836
            ],
            [
              42.8716672,
              47.6944109
            ],
            [
              42.8732229,
              47.6931471
            ],
            [
              42.8759191,
              47.6912439
            ],
            [
              42.8767634,
              47.6908578
            ],
            [
              42.8775466,
              47.6907206
            ],
            [
              42.8783513,
              47.6906051
            ],
            [
              42.8787193,
              47.6903411
            ],
            [
              42.8792557,
              47.6900883
            ],
            [
              42.8797568,
              47.6899407
            ],
            [
              42.8805507,
              47.6900345
            ],
            [
              42.8809262,
              47.690179
            ],
            [
              42.8810871,
              47.690179
            ],
            [
              42.882174,
              47.6893589
            ],
            [
              42.8838445,
              47.6883883
            ]
          ]
        ]
      }
    },
    {
      "type": "Feature",
      "properties": {
        "polygon_id": "EXT-WZ03-0006",
        "source": "OpenStreetMap",
        "source_license": "ODbL",
        "osm_way_id": 584339192,
        "landuse": "farmland",
        "area_ha": 89.35,
        "centroid_lon": 43.0813124,
        "centroid_lat": 47.7313006,
        "cropland_fraction": 0.9899948570731734,
        "sentinel2_valid_observations": 25
      },
      "geometry": {
        "type": "Polygon",
        "coordinates": [
          [
            [
              43.0763944,
              47.7283407
            ],
            [
              43.0760639,
              47.7286052
            ],
            [
              43.0757506,
              47.7291129
            ],
            [
              43.0754931,
              47.7293511
            ],
            [
              43.0752378,
              47.7294207
            ],
            [
              43.0744417,
              47.7295315
            ],
            [
              43.0743773,
              47.7296975
            ],
            [
              43.0744117,
              47.7320475
            ],
            [
              43.0745297,
              47.7329134
            ],
            [
              43.0746348,
              47.732952
            ],
            [
              43.0751927,
              47.7329087
            ],
            [
              43.0753966,
              47.7330603
            ],
            [
              43.0755361,
              47.7333561
            ],
            [
              43.0758493,
              47.7344649
            ],
            [
              43.0761047,
              47.7352755
            ],
            [
              43.0763429,
              47.7354534
            ],
            [
              43.0766433,
              47.7356338
            ],
            [
              43.0769952,
              47.7356576
            ],
            [
              43.0780359,
              47.735492
            ],
            [
              43.0824776,
              47.7346839
            ],
            [
              43.0873592,
              47.73402
            ],
            [
              43.0887647,
              47.7337891
            ],
            [
              43.0890995,
              47.7336855
            ],
            [
              43.0893977,
              47.7334138
            ],
            [
              43.089505,
              47.7330386
            ],
            [
              43.089623,
              47.7328654
            ],
            [
              43.0896874,
              47.7323964
            ],
            [
              43.089741,
              47.7299067
            ],
            [
              43.0898698,
              47.7270778
            ],
            [
              43.0896981,
              47.7269623
            ],
            [
              43.0894535,
              47.7267217
            ],
            [
              43.0892904,
              47.7264499
            ],
            [
              43.0891831,
              47.7263561
            ],
            [
              43.0888742,
              47.7263825
            ],
            [
              43.0813962,
              47.7274578
            ],
            [
              43.0763944,
              47.7283407
            ]
          ]
        ]
      }
    }
  ],
  "quality_validation": {
    "candidates": 7,
    "accepted": 6,
    "worldcover_collection": "ESA/WorldCover/v200",
    "sentinel2_period": [
      "2024-04-01",
      "2024-10-30"
    ]
  }
}
