{
  "type": "FeatureCollection",
  "name": "zernograd_farmland_pilot",
  "features": [
    {
      "type": "Feature",
      "properties": {
        "polygon_id": "EXT-ZGD-0001",
        "source": "OpenStreetMap",
        "source_license": "ODbL",
        "osm_way_id": 344276846,
        "landuse": "farmland",
        "area_ha": 155.97
      },
      "geometry": {
        "type": "Polygon",
        "coordinates": [
          [
            [
              40.325796,
              46.8182579
            ],
            [
              40.3174629,
              46.8173455
            ],
            [
              40.3173204,
              46.8172951
            ],
            [
              40.3171042,
              46.8171569
            ],
            [
              40.3145708,
              46.8164791
            ],
            [
              40.3129664,
              46.8160328
            ],
            [
              40.3129162,
              46.8214606
            ],
            [
              40.3130221,
              46.8306293
            ],
            [
              40.3130258,
              46.8332236
            ],
            [
              40.3132744,
              46.8334213
            ],
            [
              40.3134054,
              46.8334581
            ],
            [
              40.3136212,
              46.8333737
            ],
            [
              40.3148273,
              46.833146
            ],
            [
              40.315509,
              46.8330125
            ],
            [
              40.3158885,
              46.8328368
            ],
            [
              40.3163126,
              46.8327092
            ],
            [
              40.3165395,
              46.8326685
            ],
            [
              40.316726,
              46.832675
            ],
            [
              40.3168388,
              46.8326872
            ],
            [
              40.3170051,
              46.8326206
            ],
            [
              40.317099,
              46.8324889
            ],
            [
              40.3171006,
              46.8304064
            ],
            [
              40.317031,
              46.8175827
            ],
            [
              40.3173523,
              46.8175823
            ],
            [
              40.3174813,
              46.8322336
            ],
            [
              40.3176903,
              46.8324254
            ],
            [
              40.3179897,
              46.832601
            ],
            [
              40.3181629,
              46.8325138
            ],
            [
              40.3184426,
              46.8324069
            ],
            [
              40.3193501,
              46.8321637
            ],
            [
              40.3197587,
              46.8320922
            ],
            [
              40.3202231,
              46.8320157
            ],
            [
              40.3206901,
              46.8318766
            ],
            [
              40.3212943,
              46.8316916
            ],
            [
              40.3218976,
              46.8315498
            ],
            [
              40.3225172,
              46.8313617
            ],
            [
              40.3239662,
              46.8311701
            ],
            [
              40.3245292,
              46.8310092
            ],
            [
              40.3252966,
              46.8309491
            ],
            [
              40.3255342,
              46.8309995
            ],
            [
              40.3257575,
              46.8309263
            ],
            [
              40.3258502,
              46.8305655
            ],
            [
              40.3258636,
              46.8280498
            ],
            [
              40.3258426,
              46.8232649
            ],
            [
              40.325796,
              46.8182579
            ]
          ]
        ]
      }
    },
    {
      "type": "Feature",
      "properties": {
        "polygon_id": "EXT-ZGD-0002",
        "source": "OpenStreetMap",
        "source_license": "ODbL",
        "osm_way_id": 344276848,
        "landuse": "farmland",
        "area_ha": 123.0
      },
      "geometry": {
        "type": "Polygon",
        "coordinates": [
          [
            [
              40.332456,
              46.806575
            ],
            [
              40.3315086,
              46.8067345
            ],
            [
              40.328981,
              46.8071503
            ],
            [
              40.3281079,
              46.8072876
            ],
            [
              40.3277357,
              46.8073401
            ],
            [
              40.3270589,
              46.8074581
            ],
            [
              40.326705,
              46.8075109
            ],
            [
              40.3264442,
              46.8075171
            ],
            [
              40.3264275,
              46.8075305
            ],
            [
              40.3264,
              46.8076476
            ],
            [
              40.3263886,
              46.8078112
            ],
            [
              40.3263932,
              46.8079869
            ],
            [
              40.3264043,
              46.8083553
            ],
            [
              40.3263945,
              46.8107152
            ],
            [
              40.3263825,
              46.8123018
            ],
            [
              40.3263918,
              46.8134361
            ],
            [
              40.3263662,
              46.8143337
            ],
            [
              40.3263616,
              46.8151641
            ],
            [
              40.3263894,
              46.8161231
            ],
            [
              40.3264126,
              46.8164467
            ],
            [
              40.3264729,
              46.8171275
            ],
            [
              40.3265155,
              46.8173789
            ],
            [
              40.3265254,
              46.8176985
            ],
            [
              40.3265713,
              46.8183613
            ],
            [
              40.3265845,
              46.8192244
            ],
            [
              40.3265688,
              46.8205816
            ],
            [
              40.3265294,
              46.8211678
            ],
            [
              40.3265062,
              46.821704
            ],
            [
              40.3265402,
              46.8224791
            ],
            [
              40.3265435,
              46.8227472
            ],
            [
              40.326509,
              46.8231571
            ],
            [
              40.326509,
              46.8234721
            ],
            [
              40.3265156,
              46.8241592
            ],
            [
              40.3265271,
              46.8246146
            ],
            [
              40.3265564,
              46.8248903
            ],
            [
              40.3266196,
              46.8251056
            ],
            [
              40.3267411,
              46.8253303
            ],
            [
              40.3267765,
              46.8254584
            ],
            [
              40.3267684,
              46.8256757
            ],
            [
              40.3267716,
              46.8259195
            ],
            [
              40.3268421,
              46.8265307
            ],
            [
              40.3269488,
              46.8272407
            ],
            [
              40.3269538,
              46.8273298
            ],
            [
              40.3269374,
              46.8275408
            ],
            [
              40.3269161,
              46.8277343
            ],
            [
              40.3269292,
              46.8280023
            ],
            [
              40.3269177,
              46.8282548
            ],
            [
              40.3269373,
              46.8285228
            ],
            [
              40.3269833,
              46.828776
            ],
            [
              40.3269817,
              46.8290908
            ],
            [
              40.3269718,
              46.8292387
            ],
            [
              40.3269144,
              46.8296841
            ],
            [
              40.3269144,
              46.8298094
            ],
            [
              40.3269585,
              46.8301872
            ],
            [
              40.3269992,
              46.8303295
            ],
            [
              40.3270742,
              46.8305472
            ],
            [
              40.327168,
              46.8307276
            ],
            [
              40.327195,
              46.8308498
            ],
            [
              40.3271934,
              46.8310073
            ],
            [
              40.3271955,
              46.8310479
            ],
            [
              40.3272117,
              46.8310681
            ],
            [
              40.3272387,
              46.8310769
            ],
            [
              40.3272876,
              46.831071
            ],
            [
              40.3275193,
              46.8309696
            ],
            [
              40.3278175,
              46.8308588
            ],
            [
              40.328126,
              46.8307921
            ],
            [
              40.3290457,
              46.8306646
            ],
            [
              40.3298251,
              46.8306097
            ],
            [
              40.3301023,
              46.8305726
            ],
            [
              40.3305996,
              46.8304892
            ],
            [
              40.3309889,
              46.8304408
            ],
            [
              40.3317365,
              46.8303677
            ],
            [
              40.332269,
              46.8302975
            ],
            [
              40.3324325,
              46.830282
            ],
            [
              40.3328035,
              46.8302915
            ],
            [
              40.3328824,
              46.8302877
            ],
            [
              40.3328812,
              46.8302315
            ],
            [
              40.3327684,
              46.8252274
            ],
            [
              40.3326693,
              46.8251791
            ],
            [
              40.3325013,
              46.8251504
            ],
            [
              40.3323467,
              46.825124
            ],
            [
              40.3323602,
              46.8250619
            ],
            [
              40.3324425,
              46.8250343
            ],
            [
              40.3326054,
              46.8250102
            ],
            [
              40.332765,
              46.8249642
            ],
            [
              40.3327953,
              46.8248941
            ],
            [
              40.3327508,
              46.8219926
            ],
            [
              40.332744,
              46.8168768
            ],
            [
              40.3327389,
              46.8143292
            ],
            [
              40.3327464,
              46.8127406
            ],
            [
              40.3327034,
              46.8117855
            ],
            [
              40.3326412,
              46.8112878
            ],
            [
              40.3326064,
              46.8066414
            ],
            [
              40.3326064,
              46.806526
            ],
            [
              40.332456,
              46.806575
            ]
          ]
        ]
      }
    },
    {
      "type": "Feature",
      "properties": {
        "polygon_id": "EXT-ZGD-0003",
        "source": "OpenStreetMap",
        "source_license": "ODbL",
        "osm_way_id": 344223142,
        "landuse": "farmland",
        "area_ha": 85.47
      },
      "geometry": {
        "type": "Polygon",
        "coordinates": [
          [
            [
              40.3388211,
              46.8106003
            ],
            [
              40.3386087,
              46.8106846
            ],
            [
              40.3380427,
              46.8107552
            ],
            [
              40.3361841,
              46.8110481
            ],
            [
              40.3354014,
              46.8111834
            ],
            [
              40.3345996,
              46.8113877
            ],
            [
              40.3340729,
              46.8114936
            ],
            [
              40.3332775,
              46.8115525
            ],
            [
              40.3332052,
              46.8116209
            ],
            [
              40.3332291,
              46.8148011
            ],
            [
              40.3332711,
              46.8212275
            ],
            [
              40.3333627,
              46.8301949
            ],
            [
              40.3340205,
              46.8300915
            ],
            [
              40.3344016,
              46.830058
            ],
            [
              40.3353085,
              46.8298541
            ],
            [
              40.3358534,
              46.8296429
            ],
            [
              40.3363473,
              46.8294521
            ],
            [
              40.3370754,
              46.8291768
            ],
            [
              40.3376736,
              46.8289249
            ],
            [
              40.338044,
              46.8287894
            ],
            [
              40.3384016,
              46.8287297
            ],
            [
              40.3387422,
              46.8287384
            ],
            [
              40.3387638,
              46.8242047
            ],
            [
              40.3387318,
              46.8196866
            ],
            [
              40.3388211,
              46.8106003
            ]
          ]
        ]
      }
    },
    {
      "type": "Feature",
      "properties": {
        "polygon_id": "EXT-ZGD-0004",
        "source": "OpenStreetMap",
        "source_license": "ODbL",
        "osm_way_id": 344276847,
        "landuse": "farmland",
        "area_ha": 234.99
      },
      "geometry": {
        "type": "Polygon",
        "coordinates": [
          [
            [
              40.3081058,
              46.8126219
            ],
            [
              40.308168,
              46.8125242
            ],
            [
              40.308325,
              46.8125109
            ],
            [
              40.3081066,
              46.8123365
            ],
            [
              40.3077838,
              46.8119932
            ],
            [
              40.3071261,
              46.8112819
            ],
            [
              40.3069489,
              46.8110289
            ],
            [
              40.3067897,
              46.8108191
            ],
            [
              40.3066602,
              46.8107533
            ],
            [
              40.3064499,
              46.8107451
            ],
            [
              40.3056359,
              46.8108779
            ],
            [
              40.304029,
              46.8111084
            ],
            [
              40.300622,
              46.8116577
            ],
            [
              40.2996812,
              46.8118645
            ],
            [
              40.2996186,
              46.8128021
            ],
            [
              40.2995879,
              46.8233518
            ],
            [
              40.2995717,
              46.8273456
            ],
            [
              40.2995979,
              46.8330361
            ],
            [
              40.2996007,
              46.8353864
            ],
            [
              40.301254,
              46.8352571
            ],
            [
              40.3068744,
              46.8344135
            ],
            [
              40.3086233,
              46.8341266
            ],
            [
              40.3090568,
              46.8340186
            ],
            [
              40.3093305,
              46.8339271
            ],
            [
              40.3099863,
              46.8338031
            ],
            [
              40.310763,
              46.8337561
            ],
            [
              40.3118537,
              46.8335674
            ],
            [
              40.3123716,
              46.8334829
            ],
            [
              40.3125973,
              46.8335089
            ],
            [
              40.3124693,
              46.8214604
            ],
            [
              40.312604,
              46.8159356
            ],
            [
              40.3124158,
              46.815877
            ],
            [
              40.312147,
              46.815708
            ],
            [
              40.311889,
              46.815461
            ],
            [
              40.3114371,
              46.8149598
            ],
            [
              40.3111448,
              46.8146493
            ],
            [
              40.3109247,
              46.8145056
            ],
            [
              40.3101041,
              46.8140735
            ],
            [
              40.3091587,
              46.8135397
            ],
            [
              40.3087961,
              46.8132611
            ],
            [
              40.3086678,
              46.8130806
            ],
            [
              40.3085493,
              46.8127219
            ],
            [
              40.3084922,
              46.8126806
            ],
            [
              40.3085392,
              46.8130807
            ],
            [
              40.3084274,
              46.8177303
            ],
            [
              40.3083906,
              46.8190937
            ],
            [
              40.3084795,
              46.8255958
            ],
            [
              40.3085048,
              46.826824
            ],
            [
              40.3085507,
              46.8271339
            ],
            [
              40.3085111,
              46.8296869
            ],
            [
              40.3085155,
              46.8337775
            ],
            [
              40.3084595,
              46.8338841
            ],
            [
              40.3081488,
              46.8338987
            ],
            [
              40.3081024,
              46.8337585
            ],
            [
              40.3080923,
              46.8318262
            ],
            [
              40.3080658,
              46.8297541
            ],
            [
              40.3079983,
              46.8256098
            ],
            [
              40.3079975,
              46.8222721
            ],
            [
              40.3079967,
              46.8190881
            ],
            [
              40.3080228,
              46.8178355
            ],
            [
              40.3081058,
              46.8126219
            ]
          ]
        ]
      }
    },
    {
      "type": "Feature",
      "properties": {
        "polygon_id": "EXT-ZGD-0005",
        "source": "OpenStreetMap",
        "source_license": "ODbL",
        "osm_way_id": 347133011,
        "landuse": "farmland",
        "area_ha": 193.14
      },
      "geometry": {
        "type": "Polygon",
        "coordinates": [
          [
            [
              40.3696495,
              46.820689
            ],
            [
              40.3717333,
              46.8225029
            ],
            [
              40.3756765,
              46.8262022
            ],
            [
              40.3764638,
              46.827029
            ],
            [
              40.3763292,
              46.8271401
            ],
            [
              40.3756552,
              46.8274251
            ],
            [
              40.3753538,
              46.8275132
            ],
            [
              40.3745764,
              46.8278437
            ],
            [
              40.3743154,
              46.8279499
            ],
            [
              40.3731171,
              46.828216
            ],
            [
              40.3708244,
              46.8287404
            ],
            [
              40.3689596,
              46.8290827
            ],
            [
              40.3679022,
              46.829316
            ],
            [
              40.3661339,
              46.8296314
            ],
            [
              40.3648465,
              46.8298185
            ],
            [
              40.363374,
              46.8300937
            ],
            [
              40.3617286,
              46.8303688
            ],
            [
              40.3595051,
              46.8307644
            ],
            [
              40.3584993,
              46.8308936
            ],
            [
              40.3578974,
              46.8310294
            ],
            [
              40.3572222,
              46.8312265
            ],
            [
              40.3561614,
              46.8315608
            ],
            [
              40.3546428,
              46.8319837
            ],
            [
              40.353332,
              46.83224
            ],
            [
              40.3524558,
              46.8324441
            ],
            [
              40.3516661,
              46.8326729
            ],
            [
              40.3507808,
              46.832963
            ],
            [
              40.3498398,
              46.833298
            ],
            [
              40.3482028,
              46.8338305
            ],
            [
              40.3474,
              46.8339676
            ],
            [
              40.3454491,
              46.8344763
            ],
            [
              40.3399041,
              46.8359057
            ],
            [
              40.3372833,
              46.8316891
            ],
            [
              40.3402058,
              46.8306635
            ],
            [
              40.3406569,
              46.8303768
            ],
            [
              40.3451903,
              46.8288477
            ],
            [
              40.3470368,
              46.8281218
            ],
            [
              40.3483638,
              46.8276478
            ],
            [
              40.3484222,
              46.8276914
            ],
            [
              40.3520345,
              46.8264519
            ],
            [
              40.3527242,
              46.8262355
            ],
            [
              40.3531016,
              46.8262009
            ],
            [
              40.3533693,
              46.8262636
            ],
            [
              40.3536136,
              46.8262268
            ],
            [
              40.3581542,
              46.8246408
            ],
            [
              40.3665761,
              46.8217954
            ],
            [
              40.3681241,
              46.8212539
            ],
            [
              40.3696495,
              46.820689
            ]
          ]
        ]
      }
    },
    {
      "type": "Feature",
      "properties": {
        "polygon_id": "EXT-ZGD-0006",
        "source": "OpenStreetMap",
        "source_license": "ODbL",
        "osm_way_id": 345656081,
        "landuse": "farmland",
        "area_ha": 87.42
      },
      "geometry": {
        "type": "Polygon",
        "coordinates": [
          [
            [
              40.3502956,
              46.8037937
            ],
            [
              40.3483654,
              46.8041041
            ],
            [
              40.3454604,
              46.8044983
            ],
            [
              40.3454623,
              46.8101119
            ],
            [
              40.3454778,
              46.8202374
            ],
            [
              40.3454912,
              46.8253897
            ],
            [
              40.345678,
              46.8253818
            ],
            [
              40.3477535,
              46.8252941
            ],
            [
              40.3480305,
              46.8252921
            ],
            [
              40.3485934,
              46.8254507
            ],
            [
              40.3490107,
              46.8255527
            ],
            [
              40.3492756,
              46.8255691
            ],
            [
              40.3494532,
              46.8255269
            ],
            [
              40.3498792,
              46.825357
            ],
            [
              40.3501035,
              46.82529
            ],
            [
              40.3503052,
              46.8252921
            ],
            [
              40.3503833,
              46.8252942
            ],
            [
              40.3502956,
              46.8037937
            ]
          ]
        ]
      }
    },
    {
      "type": "Feature",
      "properties": {
        "polygon_id": "EXT-ZGD-0007",
        "source": "OpenStreetMap",
        "source_license": "ODbL",
        "osm_way_id": 344223143,
        "landuse": "farmland",
        "area_ha": 106.34
      },
      "geometry": {
        "type": "Polygon",
        "coordinates": [
          [
            [
              40.3449124,
              46.8045412
            ],
            [
              40.3451487,
              46.8044969
            ],
            [
              40.3451262,
              46.8045412
            ],
            [
              40.3449275,
              46.804603
            ],
            [
              40.344864,
              46.8163259
            ],
            [
              40.3448737,
              46.8262105
            ],
            [
              40.3442986,
              46.8263794
            ],
            [
              40.3436694,
              46.826915
            ],
            [
              40.3428957,
              46.8274712
            ],
            [
              40.3420317,
              46.827776
            ],
            [
              40.3409689,
              46.8280273
            ],
            [
              40.3405113,
              46.8281365
            ],
            [
              40.3397135,
              46.8284166
            ],
            [
              40.3394968,
              46.8285423
            ],
            [
              40.3394125,
              46.8285443
            ],
            [
              40.3393101,
              46.8283322
            ],
            [
              40.3393213,
              46.8250893
            ],
            [
              40.3392859,
              46.8216444
            ],
            [
              40.3392963,
              46.8175555
            ],
            [
              40.3392818,
              46.8144279
            ],
            [
              40.3392937,
              46.8118254
            ],
            [
              40.3392815,
              46.8105731
            ],
            [
              40.3392702,
              46.8103896
            ],
            [
              40.3393319,
              46.8103095
            ],
            [
              40.3393149,
              46.8098134
            ],
            [
              40.3393494,
              46.8081652
            ],
            [
              40.3393609,
              46.8079261
            ],
            [
              40.339325,
              46.8068258
            ],
            [
              40.3393465,
              46.8057843
            ],
            [
              40.3393601,
              46.805636
            ],
            [
              40.3394143,
              46.8055298
            ],
            [
              40.3395332,
              46.8054649
            ],
            [
              40.3398884,
              46.8053949
            ],
            [
              40.3417808,
              46.8050817
            ],
            [
              40.3435785,
              46.8048004
            ],
            [
              40.3449124,
              46.8045412
            ]
          ]
        ]
      }
    },
    {
      "type": "Feature",
      "properties": {
        "polygon_id": "EXT-ZGD-0008",
        "source": "OpenStreetMap",
        "source_license": "ODbL",
        "osm_way_id": 344276845,
        "landuse": "farmland",
        "area_ha": 108.63
      },
      "geometry": {
        "type": "Polygon",
        "coordinates": [
          [
            [
              40.3129872,
              46.8096722
            ],
            [
              40.3170757,
              46.8089834
            ],
            [
              40.3185763,
              46.8087559
            ],
            [
              40.3205302,
              46.8083885
            ],
            [
              40.3228517,
              46.8079764
            ],
            [
              40.3232562,
              46.8079302
            ],
            [
              40.32359,
              46.8079294
            ],
            [
              40.3255035,
              46.8076392
            ],
            [
              40.3257151,
              46.8076461
            ],
            [
              40.3258277,
              46.8077968
            ],
            [
              40.3258631,
              46.8137812
            ],
            [
              40.3257887,
              46.818156
            ],
            [
              40.3257165,
              46.8181985
            ],
            [
              40.317496,
              46.8173064
            ],
            [
              40.3173801,
              46.8172708
            ],
            [
              40.3171634,
              46.8171213
            ],
            [
              40.3155455,
              46.8166768
            ],
            [
              40.3129376,
              46.8159604
            ],
            [
              40.3129456,
              46.8157863
            ],
            [
              40.3129877,
              46.8148729
            ],
            [
              40.3130022,
              46.8145573
            ],
            [
              40.312997,
              46.8140657
            ],
            [
              40.3129526,
              46.8098704
            ],
            [
              40.3126298,
              46.809875
            ],
            [
              40.3126257,
              46.8139214
            ],
            [
              40.3126218,
              46.8143492
            ],
            [
              40.312617,
              46.8148693
            ],
            [
              40.3123794,
              46.8148823
            ],
            [
              40.3121988,
              46.8147993
            ],
            [
              40.3117688,
              46.8145977
            ],
            [
              40.3105593,
              46.8138316
            ],
            [
              40.3092764,
              46.8126902
            ],
            [
              40.3078414,
              46.8112301
            ],
            [
              40.307314,
              46.8107553
            ],
            [
              40.3072379,
              46.810609
            ],
            [
              40.3074162,
              46.810562
            ],
            [
              40.3125687,
              46.8097813
            ],
            [
              40.3129872,
              46.8096722
            ]
          ]
        ]
      }
    },
    {
      "type": "Feature",
      "properties": {
        "polygon_id": "EXT-ZGD-0009",
        "source": "OpenStreetMap",
        "source_license": "ODbL",
        "osm_way_id": 345656072,
        "landuse": "farmland",
        "area_ha": 110.53
      },
      "geometry": {
        "type": "Polygon",
        "coordinates": [
          [
            [
              40.3560806,
              46.8024386
            ],
            [
              40.3534256,
              46.8031888
            ],
            [
              40.3521252,
              46.8034944
            ],
            [
              40.3506596,
              46.8037424
            ],
            [
              40.3507199,
              46.8252941
            ],
            [
              40.3510368,
              46.8252643
            ],
            [
              40.3518968,
              46.825026
            ],
            [
              40.352529,
              46.8247767
            ],
            [
              40.3529776,
              46.8246428
            ],
            [
              40.3537543,
              46.8243812
            ],
            [
              40.3560454,
              46.8236025
            ],
            [
              40.3565602,
              46.8234089
            ],
            [
              40.3572346,
              46.8231576
            ],
            [
              40.3575231,
              46.8230963
            ],
            [
              40.3569612,
              46.8145759
            ],
            [
              40.3560806,
              46.8024386
            ]
          ]
        ]
      }
    },
    {
      "type": "Feature",
      "properties": {
        "polygon_id": "EXT-ZGD-0010",
        "source": "OpenStreetMap",
        "source_license": "ODbL",
        "osm_way_id": 344223144,
        "landuse": "farmland",
        "area_ha": 22.93
      },
      "geometry": {
        "type": "Polygon",
        "coordinates": [
          [
            [
              40.3389448,
              46.8056469
            ],
            [
              40.3392775,
              46.8056026
            ],
            [
              40.339416,
              46.8054666
            ],
            [
              40.3393121,
              46.8054614
            ],
            [
              40.3387356,
              46.8055552
            ],
            [
              40.3370721,
              46.8058453
            ],
            [
              40.3363695,
              46.8059305
            ],
            [
              40.3354291,
              46.8061166
            ],
            [
              40.3345119,
              46.8062707
            ],
            [
              40.3340614,
              46.8063599
            ],
            [
              40.3335888,
              46.8063992
            ],
            [
              40.3333142,
              46.8064196
            ],
            [
              40.3330651,
              46.8064284
            ],
            [
              40.3330864,
              46.8066426
            ],
            [
              40.3331033,
              46.8112276
            ],
            [
              40.3329995,
              46.8113244
            ],
            [
              40.3329528,
              46.8114419
            ],
            [
              40.332998,
              46.8114862
            ],
            [
              40.333162,
              46.8114625
            ],
            [
              40.3331967,
              46.8113131
            ],
            [
              40.3333141,
              46.811174
            ],
            [
              40.3335489,
              46.8110545
            ],
            [
              40.333877,
              46.8109628
            ],
            [
              40.3341826,
              46.8109288
            ],
            [
              40.3345273,
              46.8109752
            ],
            [
              40.3371121,
              46.8105726
            ],
            [
              40.3371791,
              46.8104731
            ],
            [
              40.3372249,
              46.8104403
            ],
            [
              40.3372905,
              46.8104515
            ],
            [
              40.3374403,
              46.8105046
            ],
            [
              40.3378655,
              46.8104371
            ],
            [
              40.33857,
              46.8103351
            ],
            [
              40.3387416,
              46.8102424
            ],
            [
              40.3387988,
              46.8101033
            ],
            [
              40.3388432,
              46.8057646
            ],
            [
              40.3389448,
              46.8056469
            ]
          ]
        ]
      }
    }
  ]
}
